0 FENGYUN 1C DEB
1 31265U 99025BMX 13282.16045078  .00002844  00000-0  85111-3 0  3079
2 31265 096.5666 067.0862 0136441 328.1307 186.3713 14.38127710344160
0 FENGYUN 1C DEB
1 31265U 99025BMX 13290.61850211  .00003724  00000-0  10979-2 0  3090
2 31265 096.5000 073.6630 0138463 301.7523 057.0728 14.38202593345389
0 FENGYUN 1C DEB
1 31265U 99025BMX 13290.61856448  .00004025  00000-0  11902-2 0  3090
2 31265 096.5577 073.5765 0140862 304.6221 054.4231 14.38204530345382
0 FENGYUN 1C DEB
1 31265U 99025BMX 13292.63611134  .00004120  00000-0  12141-2 0  3109
2 31265 096.5496 075.1215 0142589 299.6724 059.0148 14.38223068345676
0 FENGYUN 1C DEB
1 31265U 99025BMX 13293.19268829  .00004243  00000-0  12698-2 0  3114
2 31265 096.5693 075.5727 0132713 295.9450 062.8976 14.38230049345757
0 FENGYUN 1C DEB
1 31265U 99025BMX 13295.21023502  .00005141  00000-0  15374-2 0  3129
2 31265 096.5784 077.1188 0131845 287.4024 071.4770 14.38260801346045
0 FENGYUN 1C DEB
1 31265U 99025BMX 13295.62761720  .00005304  00000-0  15815-2 0  3137
2 31265 096.5695 077.4326 0133544 286.1216 072.5667 14.38267835346108
